{
  "type": "FeatureCollection",
  "features": [
    {
      "type": "Feature",
      "properties": {
        "norad_id": 41859,
        "name": "GSAT0207 (GALILEO 15)",
        "group": "gnss",
        "lat": 26.170692913035154,
        "lon": 126.23842251379445,
        "alt_km": 23216.48502680014,
        "timestamp": "2025-12-06T09:34:17.156989+00:00",
        "meta_object_name": "GSAT0207 (GALILEO 15)",
        "meta_object_id": "2016-069A",
        "meta_epoch": "2025-12-03T23:59:33.819072",
        "meta_mean_motion": 1.70474248,
        "meta_eccentricity": 0.0002136,
        "meta_inclination": 55.3774,
        "meta_ra_of_asc_node": 106.4923,
        "meta_arg_of_pericenter": 325.6107,
        "meta_mean_anomaly": 34.3288,
        "meta_ephemeris_type": 0,
        "meta_classification_type": "U",
        "meta_norad_cat_id": 41859,
        "meta_element_set_no": 999,
        "meta_rev_at_epoch": 5607,
        "meta_bstar": 0,
        "meta_mean_motion_dot": 1.5e-07,
        "meta_mean_motion_ddot": 0,
        "tle_line1": "1 41859U 16069A   25337.99969698  .00000015  00000+0  00000+0 0  9998",
        "tle_line2": "2 41859  55.3774 106.4923 0002136 325.6107  34.3288  1.70474248 56074"
      },
      "geometry": {
        "type": "Point",
        "coordinates": [
          126.23842251379445,
          26.170692913035154
        ]
      }
    },
    {
      "type": "Feature",
      "properties": {
        "norad_id": 41860,
        "name": "GSAT0212 (GALILEO 16)",
        "group": "gnss",
        "lat": 44.092668953371636,
        "lon": -115.56778882110407,
        "alt_km": 23216.619706344107,
        "timestamp": "2025-12-06T09:34:17.157003+00:00",
        "meta_object_name": "GSAT0212 (GALILEO 16)",
        "meta_object_id": "2016-069B",
        "meta_epoch": "2025-12-02T16:19:30.905184",
        "meta_mean_motion": 1.70474418,
        "meta_eccentricity": 0.00022458,
        "meta_inclination": 55.3738,
        "meta_ra_of_asc_node": 106.5243,
        "meta_arg_of_pericenter": 34.2432,
        "meta_mean_anomaly": 325.7313,
        "meta_ephemeris_type": 0,
        "meta_classification_type": "U",
        "meta_norad_cat_id": 41860,
        "meta_element_set_no": 999,
        "meta_rev_at_epoch": 5630,
        "meta_bstar": 0,
        "meta_mean_motion_dot": 2.7e-07,
        "meta_mean_motion_ddot": 0,
        "tle_line1": "1 41860U 16069B   25336.68021881  .00000027  00000+0  00000+0 0  9991",
        "tle_line2": "2 41860  55.3738 106.5243 0002245  34.2432 325.7313  1.70474418 56308"
      },
      "geometry": {
        "type": "Point",
        "coordinates": [
          -115.56778882110407,
          44.092668953371636
        ]
      }
    },
    {
      "type": "Feature",
      "properties": {
        "norad_id": 41861,
        "name": "GSAT0213 (GALILEO 17)",
        "group": "gnss",
        "lat": -53.18752501669177,
        "lon": -6.329054704010841,
        "alt_km": 23222.263350921392,
        "timestamp": "2025-12-06T09:34:17.157015+00:00",
        "meta_object_name": "GSAT0213 (GALILEO 17)",
        "meta_object_id": "2016-069C",
        "meta_epoch": "2025-12-04T19:22:49.962144",
        "meta_mean_motion": 1.70474712,
        "meta_eccentricity": 0.00021375,
        "meta_inclination": 55.3775,
        "meta_ra_of_asc_node": 106.4729,
        "meta_arg_of_pericenter": 283.7545,
        "meta_mean_anomaly": 76.173,
        "meta_ephemeris_type": 0,
        "meta_classification_type": "U",
        "meta_norad_cat_id": 41861,
        "meta_element_set_no": 999,
        "meta_rev_at_epoch": 5620,
        "meta_bstar": 0,
        "meta_mean_motion_dot": 1e-07,
        "meta_mean_motion_ddot": 0,
        "tle_line1": "1 41861U 16069C   25338.80752271  .00000010  00000+0  00000+0 0  9994",
        "tle_line2": "2 41861  55.3775 106.4729 0002137 283.7545  76.1730  1.70474712 56200"
      },
      "geometry": {
        "type": "Point",
        "coordinates": [
          -6.329054704010841,
          -53.18752501669177
        ]
      }
    },
    {
      "type": "Feature",
      "properties": {
        "norad_id": 41862,
        "name": "GSAT0214 (GALILEO 18)",
        "group": "gnss",
        "lat": 10.640436955551008,
        "lon": -81.04540260580144,
        "alt_km": 23222.934398975107,
        "timestamp": "2025-12-06T09:34:17.157028+00:00",
        "meta_object_name": "GSAT0214 (GALILEO 18)",
        "meta_object_id": "2016-069D",
        "meta_epoch": "2025-12-05T12:57:44.455104",
        "meta_mean_motion": 1.70474584,
        "meta_eccentricity": 0.00011763,
        "meta_inclination": 55.3762,
        "meta_ra_of_asc_node": 106.4455,
        "meta_arg_of_pericenter": 291.0864,
        "meta_mean_anomaly": 68.8522,
        "meta_ephemeris_type": 0,
        "meta_classification_type": "U",
        "meta_norad_cat_id": 41862,
        "meta_element_set_no": 999,
        "meta_rev_at_epoch": 5634,
        "meta_bstar": 0,
        "meta_mean_motion_dot": 8e-08,
        "meta_mean_motion_ddot": 0,
        "tle_line1": "1 41862U 16069D   25339.54009786  .00000008  00000+0  00000+0 0  9990",
        "tle_line2": "2 41862  55.3762 106.4455 0001176 291.0864  68.8522  1.70474584 56340"
      },
      "geometry": {
        "type": "Point",
        "coordinates": [
          -81.04540260580144,
          10.640436955551008
        ]
      }
    },
    {
      "type": "Feature",
      "properties": {
        "norad_id": 42709,
        "name": "SES-15 (WAAS/PRN 133)",
        "group": "gnss",
        "lat": 0.0427172488248564,
        "lon": 89.82166738221505,
        "alt_km": 35789.35260671997,
        "timestamp": "2025-12-06T09:34:17.157058+00:00",
        "meta_object_name": "SES-15 (WAAS/PRN 133)",
        "meta_object_id": "2017-026A",
        "meta_epoch": "2025-12-05T18:13:02.510112",
        "meta_mean_motion": 1.00266317,
        "meta_eccentricity": 4.24e-05,
        "meta_inclination": 0.0201,
        "meta_ra_of_asc_node": 343.1226,
        "meta_arg_of_pericenter": 289.5138,
        "meta_mean_anomaly": 306.2682,
        "meta_ephemeris_type": 0,
        "meta_classification_type": "U",
        "meta_norad_cat_id": 42709,
        "meta_element_set_no": 999,
        "meta_rev_at_epoch": 549,
        "meta_bstar": 0,
        "meta_mean_motion_dot": 7e-07,
        "meta_mean_motion_ddot": 0,
        "tle_line1": "1 42709U 17026A   25339.75905683  .00000070  00000+0  00000+0 0  9998",
        "tle_line2": "2 42709   0.0201 343.1226 0000424 289.5138 306.2682  1.00266317  5495"
      },
      "geometry": {
        "type": "Point",
        "coordinates": [
          89.82166738221505,
          0.0427172488248564
        ]
      }
    },
    {
      "type": "Feature",
      "properties": {
        "norad_id": 42738,
        "name": "QZS-2 (QZSS/PRN 194)",
        "group": "gnss",
        "lat": 36.62289819111199,
        "lon": 2.6971744401159383,
        "alt_km": 38703.39323082202,
        "timestamp": "2025-12-06T09:34:17.157073+00:00",
        "meta_object_name": "QZS-2 (QZSS/PRN 194)",
        "meta_object_id": "2017-028A",
        "meta_epoch": "2025-12-05T14:20:02.331744",
        "meta_mean_motion": 1.00284944,
        "meta_eccentricity": 0.07587515,
        "meta_inclination": 39.7259,
        "meta_ra_of_asc_node": 245.988,
        "meta_arg_of_pericenter": 269.4031,
        "meta_mean_anomaly": 275.8025,
        "meta_ephemeris_type": 0,
        "meta_classification_type": "U",
        "meta_norad_cat_id": 42738,
        "meta_element_set_no": 999,
        "meta_rev_at_epoch": 568,
        "meta_bstar": 0,
        "meta_mean_motion_dot": -1.57e-06,
        "meta_mean_motion_ddot": 0,
        "tle_line1": "1 42738U 17028A   25339.59724921 -.00000157  00000+0  00000+0 0  9995",
        "tle_line2": "2 42738  39.7259 245.9880 0758751 269.4031 275.8025  1.00284944  5685"
      },
      "geometry": {
        "type": "Point",
        "coordinates": [
          2.6971744401159383,
          36.62289819111199
        ]
      }
    },
    {
      "type": "Feature",
      "properties": {
        "norad_id": 42917,
        "name": "QZS-3 (QZSS/PRN 199)",
        "group": "gnss",
        "lat": 0.05534248612578647,
        "lon": -13.958519179740058,
        "alt_km": 35784.79862049502,
        "timestamp": "2025-12-06T09:34:17.157085+00:00",
        "meta_object_name": "QZS-3 (QZSS/PRN 199)",
        "meta_object_id": "2017-048A",
        "meta_epoch": "2025-12-05T21:08:52.212768",
        "meta_mean_motion": 1.00274806,
        "meta_eccentricity": 0.00022179,
        "meta_inclination": 0.0696,
        "meta_ra_of_asc_node": 215.993,
        "meta_arg_of_pericenter": 43.1582,
        "meta_mean_anomaly": 260.0076,
        "meta_ephemeris_type": 0,
        "meta_classification_type": "U",
        "meta_norad_cat_id": 42917,
        "meta_element_set_no": 999,
        "meta_rev_at_epoch": 3032,
        "meta_bstar": 0,
        "meta_mean_motion_dot": -3.38e-06,
        "meta_mean_motion_ddot": 0,
        "tle_line1": "1 42917U 17048A   25339.88115987 -.00000338  00000+0  00000+0 0  9995",
        "tle_line2": "2 42917   0.0696 215.9930 0002217  43.1582 260.0076  1.00274806 30327"
      },
      "geometry": {
        "type": "Point",
        "coordinates": [
          -13.958519179740058,
          0.05534248612578647
        ]
      }
    }
  ]
}